start=new Date('2022-05-29T00:00:00.000Z').valueOf();
sats=[{"SEMIMAJOR_AXIS":"6925.330","OBJECT_ID":"2021-036AU","TIME_SYSTEM":"UTC","INCLINATION":"53.0554","MEAN_ANOMALY":"306.9040","DECAY_DATE":null,"REV_AT_EPOCH":"5986","MEAN_MOTION_DOT":"0.00001047","REF_FRAME":"TEME","RCS_SIZE":"LARGE","FILE":"3469840","ARG_OF_PERICENTER":"53.2112","GP_ID":"204804513","TLE_LINE1":"1 48318U 21036AU  22148.58210193  .00001047  00000-0  89162-4 0  9994","RA_OF_ASC_NODE":"181.6604","MEAN_MOTION_DDOT":"0.0000000000000","ECCENTRICITY":"0.00017770","OBJECT_NAME":"STARLINK-2509","MEAN_MOTION":"15.06405994","LAUNCH_DATE":"2021-04-29","PERIOD":"95.592","OBJECT_TYPE":"PAYLOAD","PERIAPSIS":"545.965","SITE":"AFETR","COUNTRY_CODE":"US","TLE_LINE2":"2 48318  53.0554 181.6604 0001777  53.2112 306.9040 15.06405994 59863","APOAPSIS":"548.426","EPHEMERIS_TYPE":"0","CENTER_NAME":"EARTH","CLASSIFICATION_TYPE":"U","NORAD_CAT_ID":"48318","BSTAR":"0.00008916200000","MEAN_ELEMENT_THEORY":"SGP4","ELEMENT_SET_NO":"999","EPOCH":"2022-05-28T13:58:13.606752"},{"EPOCH":"2022-05-28T18:39:33.664608","ELEMENT_SET_NO":"999","MEAN_ELEMENT_THEORY":"SGP4","BSTAR":"0.00004161300000","CENTER_NAME":"EARTH","NORAD_CAT_ID":"48319","CLASSIFICATION_TYPE":"U","APOAPSIS":"548.449","EPHEMERIS_TYPE":"0","COUNTRY_CODE":"US","TLE_LINE2":"2 48319  53.0557 180.7759 0001754  54.0120 306.1032 15.06393322 59898","SITE":"AFETR","OBJECT_TYPE":"PAYLOAD","PERIAPSIS":"546.019","PERIOD":"95.593","LAUNCH_DATE":"2021-04-29","MEAN_MOTION":"15.06393322","RA_OF_ASC_NODE":"180.7759","TLE_LINE1":"1 48319U 21036AV  22148.77747297  .00000338  00000-0  41613-4 0  9997","OBJECT_NAME":"STARLINK-2512","MEAN_MOTION_DDOT":"0.0000000000000","ECCENTRICITY":"0.00017540","GP_ID":"204803767","ARG_OF_PERICENTER":"54.0120","FILE":"3469840","RCS_SIZE":"LARGE","REF_FRAME":"TEME","REV_AT_EPOCH":"5989","MEAN_MOTION_DOT":"0.00000338","DECAY_DATE":null,"MEAN_ANOMALY":"306.1032","OBJECT_ID":"2021-036AV","INCLINATION":"53.0557","TIME_SYSTEM":"UTC","SEMIMAJOR_AXIS":"6925.369"},{"MEAN_ANOMALY":"298.4419","SEMIMAJOR_AXIS":"6925.347","OBJECT_ID":"2021-036AW","INCLINATION":"53.0556","TIME_SYSTEM":"UTC","ARG_OF_PERICENTER":"61.6745","FILE":"3469283","GP_ID":"204766763","REV_AT_EPOCH":"5982","MEAN_MOTION_DOT":"0.00000411","DECAY_DATE":null,"RCS_SIZE":"LARGE","REF_FRAME":"TEME","LAUNCH_DATE":"2021-04-29","PERIOD":"95.592","RA_OF_ASC_NODE":"182.8834","TLE_LINE1":"1 48320U 21036AW  22148.30935834  .00000411  00000-0  46508-4 0  9994","MEAN_MOTION_DDOT":"0.0000000000000","ECCENTRICITY":"0.00017440","OBJECT_NAME":"STARLINK-2029","MEAN_MOTION":"15.06400612","CENTER_NAME":"EARTH","NORAD_CAT_ID":"48320","CLASSIFICATION_TYPE":"U","EPOCH":"2022-05-28T07:25:28.560576","ELEMENT_SET_NO":"999","BSTAR":"0.00004650800000","MEAN_ELEMENT_THEORY":"SGP4","SITE":"AFETR","OBJECT_TYPE":"PAYLOAD","PERIAPSIS":"546.004","EPHEMERIS_TYPE":"0","APOAPSIS":"548.419","COUNTRY_CODE":"US","TLE_LINE2":"2 48320  53.0556 182.8834 0001744  61.6745 298.4419 15.06400612 59828"},{"CENTER_NAME":"EARTH","NORAD_CAT_ID":"48321","CLASSIFICATION_TYPE":"U","EPOCH":"2022-05-28T16:53:23.869536","ELEMENT_SET_NO":"999","MEAN_ELEMENT_THEORY":"SGP4","BSTAR":"0.00008655700000","SITE":"AFETR","OBJECT_TYPE":"PAYLOAD","PERIAPSIS":"546.099","EPHEMERIS_TYPE":"0","APOAPSIS":"548.324","TLE_LINE2":"2 48321  53.0545 181.1037 0001606  49.0480 311.0648 15.06400727 59886","COUNTRY_CODE":"US","LAUNCH_DATE":"2021-04-29","PERIOD":"95.592","RA_OF_ASC_NODE":"181.1037","TLE_LINE1":"1 48321U 21036AX  22148.70374849  .00001008  00000-0  86557-4 0  9993","MEAN_MOTION_DDOT":"0.0000000000000","ECCENTRICITY":"0.00016060","OBJECT_NAME":"STARLINK-2457","MEAN_MOTION":"15.06400727","ARG_OF_PERICENTER":"49.0480","FILE":"3469840","GP_ID":"204804769","MEAN_MOTION_DOT":"0.00001008","REV_AT_EPOCH":"5988","DECAY_DATE":null,"RCS_SIZE":"LARGE","REF_FRAME":"TEME","MEAN_ANOMALY":"311.0648","SEMIMAJOR_AXIS":"6925.346","OBJECT_ID":"2021-036AX","TIME_SYSTEM":"UTC","INCLINATION":"53.0545"},{"PERIAPSIS":"545.944","OBJECT_TYPE":"PAYLOAD","SITE":"AFETR","TLE_LINE2":"2 48322  53.0552 182.0099 0001805  60.8682 299.2488 15.06406217 59855","COUNTRY_CODE":"US","APOAPSIS":"548.445","EPHEMERIS_TYPE":"0","CENTER_NAME":"EARTH","CLASSIFICATION_TYPE":"U","NORAD_CAT_ID":"48322","MEAN_ELEMENT_THEORY":"SGP4","BSTAR":"0.00008871500000","EPOCH":"2022-05-28T12:01:28.345728","ELEMENT_SET_NO":"999","RA_OF_ASC_NODE":"182.0099","TLE_LINE1":"1 48322U 21036AY  22148.50102252  .00001040  00000-0  88715-4 0  9993","ECCENTRICITY":"0.00018050","MEAN_MOTION_DDOT":"0.0000000000000","OBJECT_NAME":"STARLINK-2477","MEAN_MOTION":"15.06406217","LAUNCH_DATE":"2021-04-29","PERIOD":"95.592","DECAY_DATE":null,"MEAN_MOTION_DOT":"0.00001040","REV_AT_EPOCH":"5985","REF_FRAME":"TEME","RCS_SIZE":"MEDIUM","FILE":"3469283","ARG_OF_PERICENTER":"60.8682","GP_ID":"204765817","SEMIMAJOR_AXIS":"6925.330","OBJECT_ID":"2021-036AY","INCLINATION":"53.0552","TIME_SYSTEM":"UTC","MEAN_ANOMALY":"299.2488"},{"TLE_LINE2":"2 48323  53.0525 182.3311 0002069  44.3230 315.7924 15.06416867 60432","COUNTRY_CODE":"US","EPHEMERIS_TYPE":"0","APOAPSIS":"548.595","OBJECT_TYPE":"PAYLOAD","PERIAPSIS":"545.729","SITE":"AFETR","BSTAR":"0.00014140000000","MEAN_ELEMENT_THEORY":"SGP4","ELEMENT_SET_NO":"999","EPOCH":"2022-05-28T10:20:37.209408","CENTER_NAME":"EARTH","CLASSIFICATION_TYPE":"U","NORAD_CAT_ID":"48323","MEAN_MOTION":"15.06416867","RA_OF_ASC_NODE":"182.3311","TLE_LINE1":"1 48323U 21036AZ  22148.43098622  .00001826  00000-0  14140-3 0  9993","ECCENTRICITY":"0.00020690","MEAN_MOTION_DDOT":"0.0000000000000","OBJECT_NAME":"STARLINK-2515","PERIOD":"95.591","LAUNCH_DATE":"2021-04-29","REF_FRAME":"TEME","RCS_SIZE":"LARGE","DECAY_DATE":null,"MEAN_MOTION_DOT":"0.00001826","REV_AT_EPOCH":"6043","GP_ID":"204780399","FILE":"3469729","ARG_OF_PERICENTER":"44.3230","OBJECT_ID":"2021-036AZ","INCLINATION":"53.0525","TIME_SYSTEM":"UTC","SEMIMAJOR_AXIS":"6925.297","MEAN_ANOMALY":"315.7924"},{"BSTAR":"0.00017319000000","MEAN_ELEMENT_THEORY":"SGP4","ELEMENT_SET_NO":"999","EPOCH":"2022-05-28T19:48:32.695488","CLASSIFICATION_TYPE":"U","NORAD_CAT_ID":"48324","CENTER_NAME":"EARTH","COUNTRY_CODE":"US","TLE_LINE2":"2 48324  53.0518 180.5553 0001680  55.1504 304.9643 15.06415259 59895","EPHEMERIS_TYPE":"0","APOAPSIS":"548.330","PERIAPSIS":"546.003","OBJECT_TYPE":"PAYLOAD","SITE":"AFETR","PERIOD":"95.591","LAUNCH_DATE":"2021-04-29","MEAN_MOTION":"15.06415259","OBJECT_NAME":"STARLINK-2527","MEAN_MOTION_DDOT":"0.0000000000000","ECCENTRICITY":"0.00016800","RA_OF_ASC_NODE":"180.5553","TLE_LINE1":"1 48324U 21036BA  22148.82537842  .00002300  00000-0  17319-3 0  9998","GP_ID":"204804018","FILE":"3469840","ARG_OF_PERICENTER":"55.1504","REF_FRAME":"TEME","RCS_SIZE":"LARGE","DECAY_DATE":null,"MEAN_MOTION_DOT":"0.00002300","REV_AT_EPOCH":"5989","MEAN_ANOMALY":"304.9643","TIME_SYSTEM":"UTC","INCLINATION":"53.0518","OBJECT_ID":"2021-036BA","SEMIMAJOR_AXIS":"6925.302"},{"LAUNCH_DATE":"2021-04-29","PERIOD":"95.592","RA_OF_ASC_NODE":"180.5868","TLE_LINE1":"1 48325U 21036BB  22148.82169265  .00002213  00000-0  16743-3 0  9992","ECCENTRICITY":"0.00017390","MEAN_MOTION_DDOT":"0.0000000000000","OBJECT_NAME":"STARLINK-2495","MEAN_MOTION":"15.06404675","CENTER_NAME":"EARTH","NORAD_CAT_ID":"48325","CLASSIFICATION_TYPE":"U","EPOCH":"2022-05-28T19:43:14.244960","ELEMENT_SET_NO":"999","MEAN_ELEMENT_THEORY":"SGP4","BSTAR":"0.00016743000000","SITE":"AFETR","OBJECT_TYPE":"PAYLOAD","PERIAPSIS":"545.995","EPHEMERIS_TYPE":"0","APOAPSIS":"548.404","TLE_LINE2":"2 48325  53.0541 180.5868 0001739  46.9249 313.1886 15.06404675 59903","COUNTRY_CODE":"US","MEAN_ANOMALY":"313.1886","SEMIMAJOR_AXIS":"6925.334","OBJECT_ID":"2021-036BB","INCLINATION":"53.0541","TIME_SYSTEM":"UTC","ARG_OF_PERICENTER":"46.9249","FILE":"3469840","GP_ID":"204804269","MEAN_MOTION_DOT":"0.00002213","REV_AT_EPOCH":"5990","DECAY_DATE":null,"REF_FRAME":"TEME","RCS_SIZE":"LARGE"},{"LAUNCH_DATE":"2021-04-29","PERIOD":"95.592","MEAN_MOTION_DDOT":"0.0000000000000","ECCENTRICITY":"0.00013080","OBJECT_NAME":"STARLINK-2498","TLE_LINE1":"1 48326U 21036BC  22148.81801371  .00000608  00000-0  59675-4 0  9991","RA_OF_ASC_NODE":"180.5943","MEAN_MOTION":"15.06398515","NORAD_CAT_ID":"48326","CLASSIFICATION_TYPE":"U","CENTER_NAME":"EARTH","ELEMENT_SET_NO":"999","EPOCH":"2022-05-28T19:37:56.384544","MEAN_ELEMENT_THEORY":"SGP4","BSTAR":"0.00005967500000","SITE":"AFETR","PERIAPSIS":"546.312","OBJECT_TYPE":"PAYLOAD","APOAPSIS":"548.124","EPHEMERIS_TYPE":"0","TLE_LINE2":"2 48326  53.0550 180.5943 0001308  72.6854 287.4278 15.06398515 59901","COUNTRY_CODE":"US","MEAN_ANOMALY":"287.4278","SEMIMAJOR_AXIS":"6925.353","TIME_SYSTEM":"UTC","INCLINATION":"53.0550","OBJECT_ID":"2021-036BC","ARG_OF_PERICENTER":"72.6854","FILE":"3469840","GP_ID":"204804514","REV_AT_EPOCH":"5990","MEAN_MOTION_DOT":"0.00000608","DECAY_DATE":null,"REF_FRAME":"TEME","RCS_SIZE":"LARGE"},{"PERIAPSIS":"546.026","OBJECT_TYPE":"PAYLOAD","SITE":"AFETR","TLE_LINE2":"2 48327  53.0542 180.6066 0001775  54.4829 305.6326 15.06386272 59902","COUNTRY_CODE":"US","APOAPSIS":"548.485","EPHEMERIS_TYPE":"0","CLASSIFICATION_TYPE":"U","NORAD_CAT_ID":"48327","CENTER_NAME":"EARTH","MEAN_ELEMENT_THEORY":"SGP4","BSTAR":"-0.00003280900000","EPOCH":"2022-05-28T19:32:37.925376","ELEMENT_SET_NO":"999","OBJECT_NAME":"STARLINK-2502","MEAN_MOTION_DDOT":"0.0000000000000","ECCENTRICITY":"0.00017750","TLE_LINE1":"1 48327U 21036BD  22148.81432784 -.00000770  00000-0 -32809-4 0  9992","RA_OF_ASC_NODE":"180.6066","MEAN_MOTION":"15.06386272","LAUNCH_DATE":"2021-04-29","PERIOD":"95.593","DECAY_DATE":null,"MEAN_MOTION_DOT":"-0.00000770","REV_AT_EPOCH":"5990","REF_FRAME":"TEME","RCS_SIZE":"LARGE","FILE":"3469840","ARG_OF_PERICENTER":"54.4829","GP_ID":"204803768","SEMIMAJOR_AXIS":"6925.391","TIME_SYSTEM":"UTC","INCLINATION":"53.0542","OBJECT_ID":"2021-036BD","MEAN_ANOMALY":"305.6326"}];
